[{"OBJECT_NAME":"STARLINK-4599","OBJECT_ID":"2022-104AV","EPOCH":"2026-03-09T18:26:34.992384","MEAN_MOTION":15.08828523,"ECCENTRICITY":0.00016137,"INCLINATION":53.2172,"RA_OF_ASC_NODE":233.2953,"ARG_OF_PERICENTER":87.8933,"MEAN_ANOMALY":272.2244,"EPHEMERIS_TYPE":0,"CLASSIFICATION_TYPE":"U","NORAD_CAT_ID":53631,"ELEMENT_SET_NO":999,"REV_AT_EPOCH":19577,"BSTAR":-2.1432008e-5,"MEAN_MOTION_DOT":-6.29e-6,"MEAN_MOTION_DDOT":0},{"OBJECT_NAME":"CZ-4B DEB","OBJECT_ID":"2008-053L","EPOCH":"2026-03-08T19:52:33.417984","MEAN_MOTION":15.09778257,"ECCENTRICITY":0.00077037,"INCLINATION":97.7892,"RA_OF_ASC_NODE":87.441,"ARG_OF_PERICENTER":237.5543,"MEAN_ANOMALY":122.4941,"EPHEMERIS_TYPE":0,"CLASSIFICATION_TYPE":"U","NORAD_CAT_ID":36290,"ELEMENT_SET_NO":999,"REV_AT_EPOCH":71411,"BSTAR":0.00021001,"MEAN_MOTION_DOT":3.326e-5,"MEAN_MOTION_DDOT":0}]
